OBJECT_NAME,OBJECT_ID,EPOCH,MEAN_MOTION,ECCENTRICITY,INCLINATION,RA_OF_ASC_NODE,ARG_OF_PERICENTER,MEAN_ANOMALY,EPHEMERIS_TYPE,CLASSIFICATION_TYPE,NORAD_CAT_ID,ELEMENT_SET_NO,REV_AT_EPOCH,BSTAR,MEAN_MOTION_DOT,MEAN_MOTION_DDOT
LEMUR-2-ALISIA,2025-009DB,2026-06-16T04:52:56.384832,15.02758586,.00019008,97.6958,249.3799,191.2572,168.8611,0,U,62706,999,10001,.44727848E-3,.5921E-4,0
LEMUR-2-ROUNDTRIPPER,2025-009DG,2026-06-16T03:53:33.603072,15.03779174,.00052483,97.7258,249.8426,133.6191,226.5471,0,U,62711,999,7747,.54090684E-3,.7373E-4,0
LEMUR-2-MYNAMEISJEFF,2025-009DH,2026-06-16T05:27:05.610528,15.03787115,.00034762,97.7305,250.2880,154.4220,205.7178,0,U,62712,999,7748,.5088633E-3,.6933E-4,0
LEMUR-2-LEIA-PHILIP,2025-052AN,2026-06-16T06:25:34.673952,14.97318238,.00024591,97.6843,59.2343,212.3743,147.7328,0,U,63246,999,6853,.85614308E-4,.936E-5,0
LEMUR-2-LIA-MARTIN,2025-052AQ,2026-06-16T06:33:17.146368,14.97799247,.00028222,97.6901,59.7137,157.5023,202.6323,0,U,63248,999,6854,.25934035E-3,.2988E-4,0
LEMUR-2-DELOITTE-1,2025-052BB,2026-06-16T04:22:53.990112,14.97597173,.00033504,97.6922,59.9527,99.2397,260.9204,0,U,63259,999,6854,.330834E-3,.3809E-4,0
LEMUR-2-EMERSONROSE,2025-052BD,2026-06-16T05:24:41.313024,14.99074328,.00017804,97.6888,60.5523,66.7982,293.3429,0,U,63261,999,6859,.25240051E-3,.3005E-4,0
LEMUR-2-MARACHE-FRAN,2025-052BE,2026-06-16T04:50:06.205344,15.00094454,.00054679,97.6947,60.8428,26.6241,333.5262,0,U,63262,999,6861,.35347477E-3,.4349E-4,0
LEMUR-2-THEFALCONER,2025-052BG,2026-06-16T05:00:40.326912,14.97384603,.00027812,97.6870,59.6007,36.9745,323.1668,0,U,63264,999,6854,.20538536E-3,.2329E-4,0
LEMUR-2-UNTITLED-SC,2025-061A,2026-06-16T03:54:50.822208,15.13470570,.00169449,97.5630,142.5321,268.5482,91.3808,0,U,63351,999,6743,.20032801E-3,.3528E-4,0
LEMUR-2-ESPERANZA,2025-061B,2026-06-16T04:57:12.897792,15.13565867,.00165474,97.5643,142.6686,267.7526,92.1811,0,U,63352,999,6744,.22805825E-3,.4036E-4,0
LEMUR-2-KREMPEL-BRO2,2025-061C,2026-06-16T04:01:17.540832,15.14001265,.00174459,97.5687,143.1619,259.4176,100.5090,0,U,63353,999,6745,.20505914E-3,.3668E-4,0
LEMUR-2-THERMORAPTOR,2025-061D,2026-06-16T05:10:43.029120,15.14080649,.0017213,97.5694,143.2854,258.1681,101.7620,0,U,63354,999,6746,.22939652E-3,.4121E-4,0
LEMUR-2-NEUROSPICY,2025-061E,2026-06-16T04:30:01.932768,15.14196862,.00149746,97.5621,142.8843,262.0748,97.8784,0,U,63355,999,6746,.19942186E-3,.3582E-4,0
LEMUR-2-TILLINFINITY,2025-061F,2026-06-15T21:25:44.944320,15.14779522,.001633,97.5603,142.8810,250.0863,109.8610,0,U,63356,999,6744,.22655E-3,.4149E-4,0
LEMUR-2-KREMPEL-BRO1,2025-061G,2026-06-15T22:22:26.667840,15.14586530,.0016933,97.5606,142.8367,251.2424,108.6971,0,U,63357,999,6744,.22011E-3,.4008E-4,0
LEMUR-2-LANGER2SPACE,2025-061H,2026-06-15T21:25:05.729952,15.14281987,.0014927,97.5609,142.6114,261.4113,98.5428,0,U,63358,999,6742,.22994E-3,.4151E-4,0
LEMUR-2-BALTO,2025-052BH,2026-06-16T04:28:02.393184,15.00077812,.00069057,97.6897,60.8065,60.2959,299.8951,0,U,63395,999,6861,.40816486E-3,.503E-4,0
LEMUR-2-KRISH,2025-135AK,2026-06-16T06:31:25.816512,14.96201882,.00017591,97.7751,282.1539,100.2971,259.8448,0,U,64561,999,5378,.43626516E-3,.4862E-4,0
LEMUR-2-HUBBLE-4,2025-135AP,2026-06-16T03:08:55.940064,14.93195204,.0001016,97.7698,281.0500,314.9093,45.2044,0,U,64565,999,5371,.15614934E-3,.1574E-4,0
LEMUR-2-SEJONG-2,2025-135BL,2026-06-16T07:15:01.110816,14.96690886,.00039338,97.7690,282.3289,342.5558,17.5528,0,U,64586,999,5381,.29064369E-3,.326E-4,0
LEMUR-2-HUBBLE-5,2025-135BT,2026-06-16T06:53:03.092640,14.94134177,.00051746,97.7718,281.8362,357.3849,2.7343,0,U,64840,999,5377,.11556312E-3,.1179E-4,0
LEMUR-2-KARENDARRELL,2025-135BU,2026-06-16T07:37:32.298816,15.00099954,.00096085,97.7683,283.5267,205.4297,154.6455,0,U,64841,999,5388,.50736648E-3,.6273E-4,0
LEMUR-2-LUCILLE-ROSE,2025-135BV,2026-06-16T06:59:43.099584,15.00145660,.0011132,97.7772,283.5191,286.2430,73.7568,0,U,65403,999,4850,.43115575E-3,.5329E-4,0
LEMUR-2-AFFIE-WAUWIE,2025-248C,2026-06-16T03:21:25.708032,15.27115158,.00075209,45.3895,120.6606,77.2231,282.9498,0,U,66295,999,3443,.50637182E-3,.13448E-3,0
LEMUR-2-DEANANDMAEVE,2025-276N,2026-06-15T22:22:02.068032,15.19720965,.0005838,97.4216,240.4282,18.8956,341.2495,0,U,66678,999,3022,.26147E-3,.5521E-4,0
LEMUR-2-STAS-GORBUK,2025-276W,2026-06-16T03:27:00.839808,15.19372711,.00051428,97.4251,240.6915,18.5932,341.5489,0,U,66686,999,3025,.24324958E-3,.5079E-4,0
LEMUR-2-TEODOR,2025-276DG,2026-06-16T04:40:02.348832,15.21041790,.00021073,97.4155,240.9762,117.1178,243.0273,0,U,66768,999,3029,.2137703E-3,.4677E-4,0
LEMUR-2-LAILA,2025-276DQ,2026-06-16T04:02:41.116416,15.21262532,.00021699,97.4178,241.0710,137.1127,223.0278,0,U,66776,999,3029,.22269177E-3,.4907E-4,0
