LEMUR-2-ALISIA          
1 62706U 25009DB  26167.20343038  .00005921  00000+0  44728-3 0  9996
2 62706  97.6958 249.3799 0001900 191.2572 168.8611 15.02758586100017
LEMUR-2-ROUNDTRIPPER    
1 62711U 25009DG  26167.16219448  .00007373  00000+0  54091-3 0  9991
2 62711  97.7258 249.8426 0005248 133.6191 226.5471 15.03779174 77471
LEMUR-2-MYNAMEISJEFF    
1 62712U 25009DH  26167.22714827  .00006933  00000+0  50886-3 0  9999
2 62712  97.7305 250.2880 0003476 154.4220 205.7178 15.03787115 77488
LEMUR-2-LEIA-PHILIP     
1 63246U 25052AN  26167.26776243  .00000936  00000+0  85614-4 0  9999
2 63246  97.6843  59.2343 0002459 212.3743 147.7328 14.97318238 68538
LEMUR-2-LIA-MARTIN      
1 63248U 25052AQ  26167.27311512  .00002988  00000+0  25934-3 0  9993
2 63248  97.6901  59.7137 0002822 157.5023 202.6323 14.97799247 68546
LEMUR-2-DELOITTE-1      
1 63259U 25052BB  26167.18256933  .00003809  00000+0  33083-3 0  9997
2 63259  97.6922  59.9527 0003350  99.2397 260.9204 14.97597173 68548
LEMUR-2-EMERSONROSE     
1 63261U 25052BD  26167.22547816  .00003005  00000+0  25240-3 0  9992
2 63261  97.6888  60.5523 0001780  66.7982 293.3429 14.99074328 68598
LEMUR-2-MARACHE-FRAN    
1 63262U 25052BE  26167.20146071  .00004349  00000+0  35347-3 0  9990
2 63262  97.6947  60.8428 0005467  26.6241 333.5262 15.00094454 68611
LEMUR-2-THEFALCONER     
1 63264U 25052BG  26167.20880008  .00002329  00000+0  20539-3 0  9990
2 63264  97.6870  59.6007 0002781  36.9745 323.1668 14.97384603 68546
LEMUR-2-UNTITLED-SC     
1 63351U 25061A   26167.16308822  .00003528  00000+0  20033-3 0  9992
2 63351  97.5630 142.5321 0016944 268.5482  91.3808 15.13470570 67439
LEMUR-2-ESPERANZA       
1 63352U 25061B   26167.20639928  .00004036  00000+0  22806-3 0  9997
2 63352  97.5643 142.6686 0016547 267.7526  92.1811 15.13565867 67446
LEMUR-2-KREMPEL-BRO2    
1 63353U 25061C   26167.16756413  .00003668  00000+0  20506-3 0  9997
2 63353  97.5687 143.1619 0017445 259.4176 100.5090 15.14001265 67456
LEMUR-2-THERMORAPTOR    
1 63354U 25061D   26167.21577580  .00004121  00000+0  22940-3 0  9999
2 63354  97.5694 143.2854 0017213 258.1681 101.7620 15.14080649 67463
LEMUR-2-NEUROSPICY      
1 63355U 25061E   26167.18752237  .00003582  00000+0  19942-3 0  9998
2 63355  97.5621 142.8843 0014974 262.0748  97.8784 15.14196862 67467
LEMUR-2-TILLINFINITY    
1 63356U 25061F   26166.89288130  .00004149  00000+0  22655-3 0  9997
2 63356  97.5603 142.8810 0016330 250.0863 109.8610 15.14779522 67445
LEMUR-2-KREMPEL-BRO1    
1 63357U 25061G   26166.93225310  .00004008  00000+0  22011-3 0  9994
2 63357  97.5606 142.8367 0016933 251.2424 108.6971 15.14586530 67443
LEMUR-2-LANGER2SPACE    
1 63358U 25061H   26166.89242743  .00004151  00000+0  22994-3 0  9998
2 63358  97.5609 142.6114 0014927 261.4113  98.5428 15.14281987 67424
LEMUR-2-BALTO           
1 63395U 25052BH  26167.18613881  .00005030  00000+0  40816-3 0  9997
2 63395  97.6897  60.8065 0006905  60.2959 299.8951 15.00077812 68615
LEMUR-2-KRISH           
1 64561U 25135AK  26167.27182658  .00004862  00000+0  43627-3 0  9993
2 64561  97.7751 282.1539 0001759 100.2971 259.8448 14.96201882 53786
LEMUR-2-HUBBLE-4        
1 64565U 25135AP  26167.13120301  .00001574  00000+0  15615-3 0  9992
2 64565  97.7698 281.0500 0001016 314.9093  45.2044 14.93195204 53710
LEMUR-2-SEJONG-2        
1 64586U 25135BL  26167.30209619  .00003260  00000+0  29064-3 0  9991
2 64586  97.7690 282.3289 0003933 342.5558  17.5528 14.96690886 53815
LEMUR-2-HUBBLE-5        
1 64840U 25135BT  26167.28684135  .00001179  00000+0  11556-3 0  9995
2 64840  97.7718 281.8362 0005174 357.3849   2.7343 14.94134177 53771
LEMUR-2-KARENDARRELL    
1 64841U 25135BU  26167.31773494  .00006273  00000+0  50737-3 0  9991
2 64841  97.7683 283.5267 0009608 205.4297 154.6455 15.00099954 53886
LEMUR-2-LUCILLE-ROSE    
1 65403U 25135BV  26167.29147106  .00005329  00000+0  43116-3 0  9992
2 65403  97.7772 283.5191 0011132 286.2430  73.7568 15.00145660 48502
LEMUR-2-AFFIE-WAUWIE    
1 66295U 25248C   26167.13988088  .00013448  00000+0  50637-3 0  9999
2 66295  45.3895 120.6606 0007520  77.2231 282.9498 15.27115158 34433
LEMUR-2-DEANANDMAEVE    
1 66678U 25276N   26166.93196838  .00005521  00000+0  26147-3 0  9998
2 66678  97.4216 240.4282 0005838  18.8956 341.2495 15.19720965 30227
LEMUR-2-STAS-GORBUK     
1 66686U 25276W   26167.14375972  .00005079  00000+0  24325-3 0  9993
2 66686  97.4251 240.6915 0005142  18.5932 341.5489 15.19372711 30250
LEMUR-2-TEODOR          
1 66768U 25276DG  26167.19447163  .00004677  00000+0  21377-3 0  9998
2 66768  97.4155 240.9762 0002107 117.1178 243.0273 15.21041790 30297
LEMUR-2-LAILA           
1 66776U 25276DQ  26167.16853144  .00004907  00000+0  22269-3 0  9991
2 66776  97.4178 241.0710 0002169 137.1127 223.0278 15.21262532 30292
